{
  "type": "FeatureCollection",
  "features": [
    {
      "type": "Feature",
      "properties": {
        "norad_id": 31695,
        "name": "FENGYUN 1C DEB",
        "group": "fengyun-1c-debris",
        "lat": -65.46587013263145,
        "lon": -133.58746308562633,
        "alt_km": 534.0359391869806,
        "timestamp": "2025-12-06T18:50:10.452126+00:00",
        "meta_object_name": "FENGYUN 1C DEB",
        "meta_object_id": "1999-025CDD",
        "meta_epoch": "2025-12-04T11:55:31.104192",
        "meta_mean_motion": 14.73336399,
        "meta_eccentricity": 0.0175505,
        "meta_inclination": 98.2664,
        "meta_ra_of_asc_node": 62.6542,
        "meta_arg_of_pericenter": 254.8437,
        "meta_mean_anomaly": 103.33,
        "meta_ephemeris_type": 0,
        "meta_classification_type": "U",
        "meta_norad_cat_id": 31695,
        "meta_element_set_no": 999,
        "meta_rev_at_epoch": 65850,
        "meta_bstar": 0.0035829,
        "meta_mean_motion_dot": 0.00029711,
        "meta_mean_motion_ddot": 0,
        "tle_line1": "1 31695U 99025CDD 25338.49688778  .00029711  00000+0  35829-2 0  9995",
        "tle_line2": "2 31695  98.2664  62.6542 0175505 254.8437 103.3300 14.73336399658504"
      },
      "geometry": {
        "type": "Point",
        "coordinates": [
          -133.58746308562633,
          -65.46587013263145
        ]
      }
    },
    {
      "type": "Feature",
      "properties": {
        "norad_id": 31714,
        "name": "FENGYUN 1C DEB",
        "group": "fengyun-1c-debris",
        "lat": 32.59571033887486,
        "lon": -125.68935198236528,
        "alt_km": 601.1898606581226,
        "timestamp": "2025-12-06T18:50:10.452140+00:00",
        "meta_object_name": "FENGYUN 1C DEB",
        "meta_object_id": "1999-025CDM",
        "meta_epoch": "2025-12-03T07:15:10.328832",
        "meta_mean_motion": 14.86254821,
        "meta_eccentricity": 0.0022279,
        "meta_inclination": 99.0327,
        "meta_ra_of_asc_node": 236.1954,
        "meta_arg_of_pericenter": 332.509,
        "meta_mean_anomaly": 154.2586,
        "meta_ephemeris_type": 0,
        "meta_classification_type": "U",
        "meta_norad_cat_id": 31714,
        "meta_element_set_no": 999,
        "meta_rev_at_epoch": 95909,
        "meta_bstar": 0.0084387,
        "meta_mean_motion_dot": 0.0007526,
        "meta_mean_motion_ddot": 0,
        "tle_line1": "1 31714U 99025CDM 25337.30220288  .00075260  00000+0  84387-2 0  9997",
        "tle_line2": "2 31714  99.0327 236.1954 0022279 332.5090 154.2586 14.86254821959096"
      },
      "geometry": {
        "type": "Point",
        "coordinates": [
          -125.68935198236528,
          32.59571033887486
        ]
      }
    },
    {
      "type": "Feature",
      "properties": {
        "norad_id": 31715,
        "name": "FENGYUN 1C DEB",
        "group": "fengyun-1c-debris",
        "lat": 49.56326946161314,
        "lon": 0.04349472153310104,
        "alt_km": 582.7643081476763,
        "timestamp": "2025-12-06T18:50:10.452150+00:00",
        "meta_object_name": "FENGYUN 1C DEB",
        "meta_object_id": "1999-025CDN",
        "meta_epoch": "2025-11-29T05:58:31.345824",
        "meta_mean_motion": 14.51952144,
        "meta_eccentricity": 0.01873161,
        "meta_inclination": 99.2941,
        "meta_ra_of_asc_node": 160.6278,
        "meta_arg_of_pericenter": 159.6825,
        "meta_mean_anomaly": 201.195,
        "meta_ephemeris_type": 0,
        "meta_classification_type": "U",
        "meta_norad_cat_id": 31715,
        "meta_element_set_no": 999,
        "meta_rev_at_epoch": 61521,
        "meta_bstar": 0.0011034266,
        "meta_mean_motion_dot": 5.542e-05,
        "meta_mean_motion_ddot": 0,
        "tle_line1": "1 31715U 99025CDN 25333.24897391  .00005542  00000+0  11034-2 0  9997",
        "tle_line2": "2 31715  99.2941 160.6278 0187316 159.6825 201.1950 14.51952144615214"
      },
      "geometry": {
        "type": "Point",
        "coordinates": [
          0.04349472153310104,
          49.56326946161314
        ]
      }
    },
    {
      "type": "Feature",
      "properties": {
        "norad_id": 31716,
        "name": "FENGYUN 1C DEB",
        "group": "fengyun-1c-debris",
        "lat": 30.561566288325732,
        "lon": -124.98832800930604,
        "alt_km": 858.092586273383,
        "timestamp": "2025-12-06T18:50:10.452160+00:00",
        "meta_object_name": "FENGYUN 1C DEB",
        "meta_object_id": "1999-025CDP",
        "meta_epoch": "2025-11-29T04:21:28.587168",
        "meta_mean_motion": 14.03517485,
        "meta_eccentricity": 0.01287272,
        "meta_inclination": 98.5539,
        "meta_ra_of_asc_node": 232.9562,
        "meta_arg_of_pericenter": 129.7206,
        "meta_mean_anomaly": 26.8865,
        "meta_ephemeris_type": 0,
        "meta_classification_type": "U",
        "meta_norad_cat_id": 31716,
        "meta_element_set_no": 999,
        "meta_rev_at_epoch": 93929,
        "meta_bstar": 0.0015991138,
        "meta_mean_motion_dot": 2.658e-05,
        "meta_mean_motion_ddot": 0,
        "tle_line1": "1 31716U 99025CDP 25333.18158087  .00002658  00000+0  15991-2 0  9994",
        "tle_line2": "2 31716  98.5539 232.9562 0128727 129.7206  26.8865 14.03517485939297"
      },
      "geometry": {
        "type": "Point",
        "coordinates": [
          -124.98832800930604,
          30.561566288325732
        ]
      }
    },
    {
      "type": "Feature",
      "properties": {
        "norad_id": 31720,
        "name": "FENGYUN 1C DEB",
        "group": "fengyun-1c-debris",
        "lat": 17.4217708094863,
        "lon": 74.90767600010525,
        "alt_km": 590.1344671827583,
        "timestamp": "2025-12-06T18:50:10.452170+00:00",
        "meta_object_name": "FENGYUN 1C DEB",
        "meta_object_id": "1999-025CDT",
        "meta_epoch": "2025-12-05T06:12:31.108896",
        "meta_mean_motion": 14.71702125,
        "meta_eccentricity": 0.00997183,
        "meta_inclination": 99.0473,
        "meta_ra_of_asc_node": 250.3462,
        "meta_arg_of_pericenter": 146.666,
        "meta_mean_anomaly": 214.0877,
        "meta_ephemeris_type": 0,
        "meta_classification_type": "U",
        "meta_norad_cat_id": 31720,
        "meta_element_set_no": 999,
        "meta_rev_at_epoch": 98126,
        "meta_bstar": 0.0015386894,
        "meta_mean_motion_dot": 0.00010319,
        "meta_mean_motion_ddot": 0,
        "tle_line1": "1 31720U 99025CDT 25339.25869339  .00010319  00000+0  15387-2 0  9994",
        "tle_line2": "2 31720  99.0473 250.3462 0099718 146.6660 214.0877 14.71702125981267"
      },
      "geometry": {
        "type": "Point",
        "coordinates": [
          74.90767600010525,
          17.4217708094863
        ]
      }
    },
    {
      "type": "Feature",
      "properties": {
        "norad_id": 31721,
        "name": "FENGYUN 1C DEB",
        "group": "fengyun-1c-debris",
        "lat": -2.156118709627187,
        "lon": 139.89065972442907,
        "alt_km": 764.9836798591459,
        "timestamp": "2025-12-06T18:50:10.452180+00:00",
        "meta_object_name": "FENGYUN 1C DEB",
        "meta_object_id": "1999-025CDU",
        "meta_epoch": "2025-12-02T16:57:49.832064",
        "meta_mean_motion": 13.73762765,
        "meta_eccentricity": 0.03172129,
        "meta_inclination": 99.7801,
        "meta_ra_of_asc_node": 316.087,
        "meta_arg_of_pericenter": 209.4664,
        "meta_mean_anomaly": 336.1104,
        "meta_ephemeris_type": 0,
        "meta_classification_type": "U",
        "meta_norad_cat_id": 31721,
        "meta_element_set_no": 999,
        "meta_rev_at_epoch": 67248,
        "meta_bstar": 0.0004880859,
        "meta_mean_motion_dot": 6.09e-06,
        "meta_mean_motion_ddot": 0,
        "tle_line1": "1 31721U 99025CDU 25336.70682676  .00000609  00000+0  48809-3 0  9996",
        "tle_line2": "2 31721  99.7801 316.0870 0317212 209.4664 336.1104 13.73762765672484"
      },
      "geometry": {
        "type": "Point",
        "coordinates": [
          139.89065972442907,
          -2.156118709627187
        ]
      }
    },
    {
      "type": "Feature",
      "properties": {
        "norad_id": 31724,
        "name": "FENGYUN 1C DEB",
        "group": "fengyun-1c-debris",
        "lat": -9.816869348839298,
        "lon": 165.80359604629368,
        "alt_km": 696.4716782302912,
        "timestamp": "2025-12-06T18:50:10.452190+00:00",
        "meta_object_name": "FENGYUN 1C DEB",
        "meta_object_id": "1999-025CDX",
        "meta_epoch": "2025-12-04T06:16:47.265024",
        "meta_mean_motion": 14.48822962,
        "meta_eccentricity": 0.0152327,
        "meta_inclination": 97.8549,
        "meta_ra_of_asc_node": 344.8228,
        "meta_arg_of_pericenter": 268.5146,
        "meta_mean_anomaly": 89.8595,
        "meta_ephemeris_type": 0,
        "meta_classification_type": "U",
        "meta_norad_cat_id": 31724,
        "meta_element_set_no": 999,
        "meta_rev_at_epoch": 64369,
        "meta_bstar": 0.0052478,
        "meta_mean_motion_dot": 0.00022998,
        "meta_mean_motion_ddot": 0,
        "tle_line1": "1 31724U 99025CDX 25338.26165816  .00022998  00000+0  52478-2 0  9995",
        "tle_line2": "2 31724  97.8549 344.8228 0152327 268.5146  89.8595 14.48822962643692"
      },
      "geometry": {
        "type": "Point",
        "coordinates": [
          165.80359604629368,
          -9.816869348839298
        ]
      }
    }
  ]
}